UMBRA-07                
1 58297U 23174AT  26068.71829358  .00012685  00000+0  84614-3 0  9990
2 58297  97.3902 128.3323 0004131  75.5473 284.6213 15.07174057128425
STARLINK-34313          
1 64166U 25112W   26068.71596538  .00003297  00000+0  23261-3 0  9997
2 64166  97.6020 121.5735 0001301 101.9489 258.1883 15.05652387 43318
